NORAD_CAT_ID,OBJECT_NAME,OBJECT_TYPE,EPOCH,MEAN_MOTION,ECCENTRICITY,INCLINATION,RA_OF_ASC_NODE,ARG_OF_PERICENTER,MEAN_ANOMALY,BSTAR,MEAN_MOTION_DOT,MEAN_MOTION_DDOT,TLE_LINE0,TLE_LINE1,TLE_LINE2,SEMIMAJOR_AXIS,PERIOD,APOGEE,PERIGEE,DECAYED
53727.0,STARLINK-4701,PAYLOAD,2023-02-13 13:40:28,15.08836433,0.0001226,53.2164,242.5257,92.6834,267.4299,-9.8943e-05,-1.862e-05,0.0,0 STARLINK-4701,1 53727U 22107AD  23044.56977315 -.00001862  00000-0 -98943-4 0  9998,2 53727  53.2164 242.5257 0001226  92.6834 267.4299 15.08836433 25453,6917.891,95.438,540.604,538.908,0.0
53727.0,STARLINK-4701,PAYLOAD,2023-02-13 20:02:00,15.08841641,0.0001217,53.2166,241.3364,92.8505,267.2626,0.00012357,1.679e-05,0.0,0 STARLINK-4701,1 53727U 22107AD  23044.83473144  .00001679  00000-0  12357-3 0  9997,2 53727  53.2166 241.3364 0001217  92.8505 267.2626 15.08841641 24894,6917.875,95.437,540.582,538.898,0.0
53727.0,STARLINK-4701,PAYLOAD,2023-02-14 05:34:19,15.08836493,0.0001291,53.2169,239.5522,90.4139,269.7001,0.00046196,7.071e-05,0.0,0 STARLINK-4701,1 53727U 22107AD  23045.23217490  .00007071  00000-0  46196-3 0  9992,2 53727  53.2169 239.5522 0001291  90.4139 269.7001 15.08836493 25558,6917.891,95.438,540.649,538.863,0.0
53727.0,STARLINK-4701,PAYLOAD,2023-02-14 19:52:48,15.08843066,0.0001202,53.2164,236.8759,96.1113,264.0017,0.00056975,8.792e-05,0.0,0 STARLINK-4701,1 53727U 22107AD  23045.82833560  .00008792  00000-0  56975-3 0  9996,2 53727  53.2164 236.8759 0001202  96.1113 264.0017 15.08843066 25641,6917.871,95.437,540.568,538.904,0.0
53727.0,STARLINK-4701,PAYLOAD,2023-02-15 05:25:07,15.08839469,0.0001179,53.2162,235.0919,89.518,270.5947,0.00032754,4.929e-05,0.0,0 STARLINK-4701,1 53727U 22107AD  23046.22577713  .00004929  00000-0  32754-3 0  9993,2 53727  53.2162 235.0919 0001179  89.5180 270.5947 15.08839469 25108,6917.882,95.438,540.563,538.931,0.0
53727.0,STARLINK-4701,PAYLOAD,2023-02-15 13:22:02,15.08848552,0.0001081,53.2157,233.6052,89.5853,270.5263,0.00068753,0.00010674,0.0,0 STARLINK-4701,1 53727U 22107AD  23046.55697655  .00010674  00000-0  68753-3 0  9999,2 53727  53.2157 233.6052 0001081  89.5853 270.5263 15.08848552 25758,6917.854,95.437,540.467,538.971,0.0
53727.0,STARLINK-4701,PAYLOAD,2023-02-15 21:18:58,15.08859703,0.000103,53.2157,232.1182,86.9174,273.1936,0.0010627,0.00016674,0.0,0 STARLINK-4701,1 53727U 22107AD  23046.88817412  .00016674  00000-0  10627-2 0  9992,2 53727  53.2157 232.1182 0001030  86.9174 273.1936 15.08859703 25809,6917.82,95.436,540.398,538.973,0.0
53727.0,STARLINK-4701,PAYLOAD,2023-02-16 06:51:17,15.08843174,0.000104,53.2153,230.3344,92.6019,267.5093,0.0003371,5.082e-05,0.0,0 STARLINK-4701,1 53727U 22107AD  23047.28561601  .00005082  00000-0  33710-3 0  9993,2 53727  53.2153 230.3344 0001040  92.6019 267.5093 15.08843174 25264,6917.871,95.437,540.455,539.016,0.0
53727.0,STARLINK-4701,PAYLOAD,2023-02-16 13:12:49,15.08849227,0.0001045,53.2152,229.1449,92.6425,267.4686,0.0005898,9.114e-05,0.0,0 STARLINK-4701,1 53727U 22107AD  23047.55057521  .00009114  00000-0  58980-3 0  9990,2 53727  53.2152 229.1449 0001045  92.6425 267.4686 15.08849227 25904,6917.852,95.437,540.44,538.994,0.0
53727.0,STARLINK-4701,PAYLOAD,2023-02-16 21:09:45,15.08858114,0.000105,53.2151,227.6588,90.1047,270.0065,0.0013921,0.00021948,0.0,0 STARLINK-4701,1 53727U 22107AD  23047.88177309  .00021948  00000-0  13921-2 0  9997,2 53727  53.2151 227.6588 0001050  90.1047 270.0065 15.08858114 25950,6917.825,95.436,540.416,538.964,0.0
53727.0,STARLINK-4701,PAYLOAD,2023-02-17 06:42:04,15.08833657,0.000119,53.2149,225.8738,97.9928,262.1199,-4.0969e-05,-9.4e-06,0.0,0 STARLINK-4701,1 53727U 22107AD  23048.27921595 -.00000940  00000-0 -40969-4 0  9990,2 53727  53.2149 225.8738 0001190  97.9928 262.1199 15.08833657 25418,6917.9,95.438,540.588,538.942,0.0
53727.0,STARLINK-4701,PAYLOAD,2023-02-17 13:03:36,15.08839635,0.0001214,53.2149,224.6841,88.2582,271.8549,0.00026115,3.871e-05,0.0,0 STARLINK-4701,1 53727U 22107AD  23048.54417670  .00003871  00000-0  26115-3 0  9994,2 53727  53.2149 224.6841 0001214  88.2582 271.8549 15.08839635 26055,6917.882,95.438,540.586,538.907,0.0
53727.0,STARLINK-4701,PAYLOAD,2023-02-17 21:00:32,15.08841656,0.0001257,53.2152,223.1981,81.2216,278.8919,0.0010375,0.00016263,0.0,0 STARLINK-4701,1 53727U 22107AD  23048.87537798  .00016263  00000-0  10375-2 0  9993,2 53727  53.2152 223.1981 0001257  81.2216 278.8919 15.08841656 26102,6917.875,95.437,540.61,538.871,0.0
53727.0,STARLINK-4701,PAYLOAD,2023-02-18 11:19:01,15.08840788,0.0001379,53.2146,220.5212,84.1921,275.9229,0.00087252,0.00013626,0.0,0 STARLINK-4701,1 53727U 22107AD  23049.47154179  .00013626  00000-0  87252-3 0  9997,2 53727  53.2146 220.5212 0001379  84.1921 275.9229 15.08840788 25592,6917.878,95.438,540.697,538.789,0.0
53727.0,STARLINK-4701,PAYLOAD,2023-02-18 12:54:24,15.08838889,0.0001301,53.2151,220.2239,85.6452,274.4688,0.00076887,0.00011969,0.0,0 STARLINK-4701,1 53727U 22107AD  23049.53778187  .00011969  00000-0  76887-3 0  9995,2 53727  53.2151 220.2239 0001301  85.6452 274.4688 15.08838889 26205,6917.884,95.438,540.649,538.849,0.0
53727.0,STARLINK-4701,PAYLOAD,2023-02-19 04:48:15,15.08843857,0.0001525,53.216,217.2497,82.7024,277.4141,0.00095807,0.00014994,0.0,0 STARLINK-4701,1 53727U 22107AD  23050.20018357  .00014994  00000-0  95807-3 0  9991,2 53727  53.2160 217.2497 0001525  82.7024 277.4141 15.08843857 25700,6917.869,95.437,540.789,538.679,0.0
53727.0,STARLINK-4701,PAYLOAD,2023-02-19 14:20:34,15.08848948,0.0001333,53.2158,215.4657,85.2556,274.8589,0.00067772,0.00010517,0.0,0 STARLINK-4701,1 53727U 22107AD  23050.59762204  .00010517  00000-0  67772-3 0  9997,2 53727  53.2158 215.4657 0001333  85.2556 274.8589 15.08848948 26366,6917.853,95.437,540.64,538.796,0.0
53727.0,STARLINK-4701,PAYLOAD,2023-02-19 20:42:06,15.08853047,0.0001299,53.216,214.2764,79.5175,280.5964,0.00069899,0.00010858,0.0,0 STARLINK-4701,1 53727U 22107AD  23050.86258024  .00010858  00000-0  69899-3 0  9997,2 53727  53.2160 214.2764 0001299  79.5175 280.5964 15.08853047 25804,6917.841,95.437,540.604,538.807,0.0
53727.0,STARLINK-4701,PAYLOAD,2023-02-20 14:11:21,15.08844011,0.0001101,53.2164,211.0052,85.2629,274.8489,0.00051867,7.977e-05,0.0,0 STARLINK-4701,1 53727U 22107AD  23051.59122343  .00007977  00000-0  51867-3 0  9996,2 53727  53.2164 211.0052 0001101  85.2629 274.8489 15.08844011 25914,6917.868,95.437,540.495,538.971,0.0
53727.0,STARLINK-4701,PAYLOAD,2023-02-20 20:32:54,15.08848886,0.0001175,53.2165,209.8156,76.4433,283.669,0.00062772,9.719e-05,0.0,0 STARLINK-4701,1 53727U 22107AD  23051.85618280  .00009719  00000-0  62772-3 0  9998,2 53727  53.2165 209.8156 0001175  76.4433 283.6690 15.08848886 26558,6917.853,95.437,540.531,538.905,0.0
53727.0,STARLINK-4701,PAYLOAD,2023-02-21 17:12:55,15.08844291,0.0001251,53.2176,205.9507,90.5035,269.6101,0.00082104,0.00012805,0.0,0 STARLINK-4701,1 53727U 22107AD  23052.71730671  .00012805  00000-0  82104-3 0  9994,2 53727  53.2176 205.9507 0001251  90.5035 269.6101 15.08844291 26082,6917.867,95.437,540.598,538.867,0.0
53727.0,STARLINK-4701,PAYLOAD,2023-02-21 20:23:41,15.08837088,0.0001096,53.2176,205.3569,92.9282,267.1835,0.00036183,5.475e-05,0.0,0 STARLINK-4701,1 53727U 22107AD  23052.84978749  .00005475  00000-0  36183-3 0  9999,2 53727  53.2176 205.3569 0001096  92.9282 267.1835 15.08837088 26703,6917.889,95.438,540.512,538.996,0.0
53727.0,STARLINK-4701,PAYLOAD,2023-02-22 02:45:14,15.08836724,0.000123,53.2178,204.1673,83.2426,276.8706,8.3554e-05,1.042e-05,0.0,0 STARLINK-4701,1 53727U 22107AD  23053.11474857  .00001042  00000-0  83554-4 0  9992,2 53727  53.2178 204.1673 0001230  83.2426 276.8706 15.08836724 26149,6917.89,95.438,540.606,538.905,0.0
53727.0,STARLINK-4701,PAYLOAD,2023-02-22 18:39:04,15.08857851,0.0001037,53.2166,201.1927,76.1207,283.9901,0.00037593,5.703e-05,0.0,0 STARLINK-4701,1 53727U 22107AD  23053.77713716  .00005703  00000-0  37593-3 0  9993,2 53727  53.2166 201.1927 0001037  76.1207 283.9901 15.08857851 26249,6917.826,95.436,540.408,538.973,0.0
53727.0,STARLINK-4701,PAYLOAD,2023-02-22 20:14:27,15.08862374,0.000105,53.2167,200.8954,76.8452,283.2657,0.000459,7.029e-05,0.0,0 STARLINK-4701,1 53727U 22107AD  23053.84337513  .00007029  00000-0  45900-3 0  9992,2 53727  53.2167 200.8954 0001050  76.8452 283.2657 15.08862374 26854,6917.812,95.436,540.403,538.951,0.0
53727.0,STARLINK-4701,PAYLOAD,2023-02-23 02:36:00,15.08838474,0.0001141,53.2176,199.7061,82.2606,277.8516,-3.5013e-05,-8.45e-06,0.0,0 STARLINK-4701,1 53727U 22107AD  23054.10834307 -.00000845  00000-0 -35013-4 0  9991,2 53727  53.2176 199.7061 0001141  82.2606 277.8516 15.08838474 26297,6917.885,95.438,540.539,538.961,0.0
53727.0,STARLINK-4701,PAYLOAD,2023-02-23 13:43:43,15.08835973,0.0001188,53.2166,197.625,85.8985,274.2143,7.91e-05,9.71e-06,0.0,0 STARLINK-4701,1 53727U 22107AD  23054.57202734  .00000971  00000-0  79100-4 0  9998,2 53727  53.2166 197.6250 0001188  85.8985 274.2143 15.08835973 26965,6917.893,95.438,540.58,538.936,0.0
53727.0,STARLINK-4701,PAYLOAD,2023-02-23 20:05:15,15.0884849,0.0001244,53.2168,196.4355,84.413,275.7004,0.00021416,3.123e-05,0.0,0 STARLINK-4701,1 53727U 22107AD  23054.83698157  .00003123  00000-0  21416-3 0  9993,2 53727  53.2168 196.4355 0001244  84.4130 275.7004 15.08848490 27006,6917.854,95.437,540.58,538.859,0.0
53727.0,STARLINK-4701,PAYLOAD,2023-02-24 11:59:06,15.08832945,7.3e-05,53.2173,193.4612,98.5571,261.5504,8.6055e-05,1.082e-05,0.0,0 STARLINK-4701,1 53727U 22107AD  23055.49938592  .00001082  00000-0  86055-4 0  9999,2 53727  53.2173 193.4612 0000730  98.5571 261.5504 15.08832945 27106,6917.902,95.438,540.272,539.262,0.0
53727.0,STARLINK-4701,PAYLOAD,2023-02-24 15:09:53,15.08846041,0.0001154,53.2161,192.8667,96.753,263.3594,0.00062949,9.746e-05,0.0,0 STARLINK-4701,1 53727U 22107AD  23055.63186486  .00009746  00000-0  62949-3 0  9992,2 53727  53.2161 192.8667 0001154  96.7530 263.3594 15.08846041 26528,6917.862,95.437,540.525,538.929,0.0
